[{"OBJECT_NAME":"STARLINK-1372","OBJECT_ID":"2020-025N","EPOCH":"2026-03-09T09:08:39.449760","MEAN_MOTION":15.30207893,"ECCENTRICITY":0.00011953,"INCLINATION":53.1606,"RA_OF_ASC_NODE":102.4567,"ARG_OF_PERICENTER":90.9639,"MEAN_ANOMALY":269.1499,"EPHEMERIS_TYPE":0,"CLASSIFICATION_TYPE":"U","NORAD_CAT_ID":45543,"ELEMENT_SET_NO":999,"REV_AT_EPOCH":32422,"BSTAR":9.6690214e-5,"MEAN_MOTION_DOT":2.506e-5,"MEAN_MOTION_DDOT":0},{"OBJECT_NAME":"COSMOS 1461","OBJECT_ID":"1983-044A","EPOCH":"2026-03-09T23:27:40.254336","MEAN_MOTION":15.35034079,"ECCENTRICITY":0.00529955,"INCLINATION":64.9902,"RA_OF_ASC_NODE":19.3405,"ARG_OF_PERICENTER":227.9657,"MEAN_ANOMALY":131.6963,"EPHEMERIS_TYPE":0,"CLASSIFICATION_TYPE":"U","NORAD_CAT_ID":14064,"ELEMENT_SET_NO":999,"REV_AT_EPOCH":20189,"BSTAR":0.00068784348,"MEAN_MOTION_DOT":0.00024451,"MEAN_MOTION_DDOT":0}]
